{"type": "FeatureCollection", "features": [ {"type": "Feature", "properties": {"norad_id": 66492, "name": "STARLINK-35673", "group": "last-30-days", "lat": 0.146778541148258, "lon": -20.599222749352993, "alt_km": 396.86386038893033, "timestamp": "2025-12-06T20:37:54.812789+00:00", "meta": {"OBJECT_NAME": "STARLINK-35673", "OBJECT_ID": "2025-263H", "EPOCH": "2025-12-06T14:00:01.999872", "MEAN_MOTION": 15.58008467, "ECCENTRICITY": 0.00015706, "INCLINATION": 42.9998, "RA_OF_ASC_NODE": 161.1914, "ARG_OF_PERICENTER": 272.0472, "MEAN_ANOMALY": 156.6893, "EPHEMERIS_TYPE": 0, "CLASSIFICATION_TYPE": "U", "NORAD_CAT_ID": 66492, "ELEMENT_SET_NO": 999, "REV_AT_EPOCH": 464, "BSTAR": -0.030730278, "MEAN_MOTION_DOT": -0.02106554, "MEAN_MOTION_DDOT": 0}, "tle": {"line1": "1 66492U 25263H   25340.58335648 -.02106554  00000+0 -30730-1 0  9999", "line2": "2 66492  42.9998 161.1914 0001570 272.0472 156.6893 15.58008467  4646"}}, "geometry": {"type": "Point", "coordinates": [-20.599222749352993, 0.146778541148258]}}, {"type": "Feature", "properties": {"norad_id": 66493, "name": "STARLINK-35597", "group": "last-30-days", "lat": -1.1613957850328183, "lon": -19.20049434070776, "alt_km": 396.9677091178519, "timestamp": "2025-12-06T20:37:54.812804+00:00", "meta": {"OBJECT_NAME": "STARLINK-35597", "OBJECT_ID": "2025-263J", "EPOCH": "2025-12-06T14:00:01.999872", "MEAN_MOTION": 15.58011492, "ECCENTRICITY": 0.00015113, "INCLINATION": 42.9999, "RA_OF_ASC_NODE": 161.186, "ARG_OF_PERICENTER": 271.094, "MEAN_ANOMALY": 159.5589, "EPHEMERIS_TYPE": 0, "CLASSIFICATION_TYPE": "U", "NORAD_CAT_ID": 66493, "ELEMENT_SET_NO": 999, "REV_AT_EPOCH": 464, "BSTAR": -0.03078488, "MEAN_MOTION_DOT": -0.02110059, "MEAN_MOTION_DDOT": 0}, "tle": {"line1": "1 66493U 25263J   25340.58335648 -.02110059  00000+0 -30785-1 0  9995", "line2": "2 66493  42.9999 161.1860 0001511 271.0940 159.5589 15.58011492  4648"}}, "geometry": {"type": "Point", "coordinates": [-19.20049434070776, -1.1613957850328183]}}, {"type": "Feature", "properties": {"norad_id": 66494, "name": "STARLINK-35689", "group": "last-30-days", "lat": 2.7582984187571866, "lon": -23.39560845916073, "alt_km": 396.54170768667336, "timestamp": "2025-12-06T20:37:54.812817+00:00", "meta": {"OBJECT_NAME": "STARLINK-35689", "OBJECT_ID": "2025-263K", "EPOCH": "2025-12-06T14:00:01.999872", "MEAN_MOTION": 15.580111, "ECCENTRICITY": 0.00015548, "INCLINATION": 42.9996, "RA_OF_ASC_NODE": 161.2012, "ARG_OF_PERICENTER": 269.6342, "MEAN_ANOMALY": 155.2692, "EPHEMERIS_TYPE": 0, "CLASSIFICATION_TYPE": "U", "NORAD_CAT_ID": 66494, "ELEMENT_SET_NO": 999, "REV_AT_EPOCH": 464, "BSTAR": -0.030808273, "MEAN_MOTION_DOT": -0.02111489, "MEAN_MOTION_DDOT": 0}, "tle": {"line1": "1 66494U 25263K   25340.58335648 -.02111489  00000+0 -30808-1 0  9990", "line2": "2 66494  42.9996 161.2012 0001554 269.6342 155.2692 15.58011100  4646"}}, "geometry": {"type": "Point", "coordinates": [-23.39560845916073, 2.7582984187571866]}}, {"type": "Feature", "properties": {"norad_id": 66495, "name": "STARLINK-35832", "group": "last-30-days", "lat": -2.467253887686954, "lon": -17.801170123181475, "alt_km": 397.11593030094355, "timestamp": "2025-12-06T20:37:54.812828+00:00", "meta": {"OBJECT_NAME": "STARLINK-35832", "OBJECT_ID": "2025-263L", "EPOCH": "2025-12-06T14:00:01.999872", "MEAN_MOTION": 15.58009893, "ECCENTRICITY": 0.00015302, "INCLINATION": 42.9994, "RA_OF_ASC_NODE": 161.1816, "ARG_OF_PERICENTER": 271.9398, "MEAN_ANOMALY": 160.6312, "EPHEMERIS_TYPE": 0, "CLASSIFICATION_TYPE": "U", "NORAD_CAT_ID": 66495, "ELEMENT_SET_NO": 999, "REV_AT_EPOCH": 464, "BSTAR": -0.03077329, "MEAN_MOTION_DOT": -0.02109252, "MEAN_MOTION_DDOT": 0}, "tle": {"line1": "1 66495U 25263L   25340.58335648 -.02109252  00000+0 -30773-1 0  9997", "line2": "2 66495  42.9994 161.1816 0001530 271.9398 160.6312 15.58009893  4642"}}, "geometry": {"type": "Point", "coordinates": [-17.801170123181475, -2.467253887686954]}}, {"type": "Feature", "properties": {"norad_id": 66496, "name": "STARLINK-35909", "group": "last-30-days", "lat": -3.773684192327118, "lon": -16.397704515852368, "alt_km": 397.2472451722033, "timestamp": "2025-12-06T20:37:54.812838+00:00", "meta": {"OBJECT_NAME": "STARLINK-35909", "OBJECT_ID": "2025-263M", "EPOCH": "2025-12-06T14:00:01.999872", "MEAN_MOTION": 15.5801161, "ECCENTRICITY": 0.0001449, "INCLINATION": 42.9996, "RA_OF_ASC_NODE": 161.1764, "ARG_OF_PERICENTER": 272.2546, "MEAN_ANOMALY": 162.2344, "EPHEMERIS_TYPE": 0, "CLASSIFICATION_TYPE": "U", "NORAD_CAT_ID": 66496, "ELEMENT_SET_NO": 999, "REV_AT_EPOCH": 464, "BSTAR": -0.030818003, "MEAN_MOTION_DOT": -0.02112045, "MEAN_MOTION_DDOT": 0}, "tle": {"line1": "1 66496U 25263M   25340.58335648 -.02112045  00000+0 -30818-1 0  9992", "line2": "2 66496  42.9996 161.1764 0001449 272.2546 162.2344 15.58011610  4648"}}, "geometry": {"type": "Point", "coordinates": [-16.397704515852368, -3.773684192327118]}}, {"type": "Feature", "properties": {"norad_id": 66497, "name": "STARLINK-35899", "group": "last-30-days", "lat": -5.072602375781806, "lon": -14.99535259471384, "alt_km": 397.34613127562807, "timestamp": "2025-12-06T20:37:54.812849+00:00", "meta": {"OBJECT_NAME": "STARLINK-35899", "OBJECT_ID": "2025-263N", "EPOCH": "2025-12-06T14:00:01.999872", "MEAN_MOTION": 15.58011635, "ECCENTRICITY": 0.00016083, "INCLINATION": 42.9995, "RA_OF_ASC_NODE": 161.1715, "ARG_OF_PERICENTER": 271.8097, "MEAN_ANOMALY": 164.5926, "EPHEMERIS_TYPE": 0, "CLASSIFICATION_TYPE": "U", "NORAD_CAT_ID": 66497, "ELEMENT_SET_NO": 999, "REV_AT_EPOCH": 464, "BSTAR": -0.030787916, "MEAN_MOTION_DOT": -0.02110323, "MEAN_MOTION_DDOT": 0}, "tle": {"line1": "1 66497U 25263N   25340.58335648 -.02110323  00000+0 -30788-1 0  9996", "line2": "2 66497  42.9995 161.1715 0001608 271.8097 164.5926 15.58011635  4645"}}, "geometry": {"type": "Point", "coordinates": [-14.99535259471384, -5.072602375781806]}}, {"type": "Feature", "properties": {"norad_id": 66498, "name": "STARLINK-35907", "group": "last-30-days", "lat": -6.376128269028973, "lon": -13.579552373654511, "alt_km": 397.5045301285627, "timestamp": "2025-12-06T20:37:54.812859+00:00", "meta": {"OBJECT_NAME": "STARLINK-35907", "OBJECT_ID": "2025-263P", "EPOCH": "2025-12-06T14:00:01.999872", "MEAN_MOTION": 15.5801194, "ECCENTRICITY": 0.00013861, "INCLINATION": 42.9995, "RA_OF_ASC_NODE": 161.166, "ARG_OF_PERICENTER": 273.015, "MEAN_ANOMALY": 165.3089, "EPHEMERIS_TYPE": 0, "CLASSIFICATION_TYPE": "U", "NORAD_CAT_ID": 66498, "ELEMENT_SET_NO": 999, "REV_AT_EPOCH": 464, "BSTAR": -0.030836935, "MEAN_MOTION_DOT": -0.0211318, "MEAN_MOTION_DDOT": 0}, "tle": {"line1": "1 66498U 25263P   25340.58335648 -.02113180  00000+0 -30837-1 0  9996", "line2": "2 66498  42.9995 161.1660 0001386 273.0150 165.3089 15.58011940  4640"}}, "geometry": {"type": "Point", "coordinates": [-13.579552373654511, -6.376128269028973]}}, {"type": "Feature", "properties": {"norad_id": 66499, "name": "STARLINK-35816", "group": "last-30-days", "lat": -8.961605385563782, "lon": -10.732753406243827, "alt_km": 397.707880031433, "timestamp": "2025-12-06T20:37:54.812870+00:00", "meta": {"OBJECT_NAME": "STARLINK-35816", "OBJECT_ID": "2025-263Q", "EPOCH": "2025-12-06T14:00:01.999872", "MEAN_MOTION": 15.58008439, "ECCENTRICITY": 0.00014152, "INCLINATION": 42.9997, "RA_OF_ASC_NODE": 161.1571, "ARG_OF_PERICENTER": 272.1252, "MEAN_ANOMALY": 170.035, "EPHEMERIS_TYPE": 0, "CLASSIFICATION_TYPE": "U", "NORAD_CAT_ID": 66499, "ELEMENT_SET_NO": 999, "REV_AT_EPOCH": 464, "BSTAR": -0.030780294, "MEAN_MOTION_DOT": -0.02109495, "MEAN_MOTION_DDOT": 0}, "tle": {"line1": "1 66499U 25263Q   25340.58335648 -.02109495  00000+0 -30780-1 0  9998", "line2": "2 66499  42.9997 161.1571 0001415 272.1252 170.0350 15.58008439  4643"}}, "geometry": {"type": "Point", "coordinates": [-10.732753406243827, -8.961605385563782]}}, {"type": "Feature", "properties": {"norad_id": 66500, "name": "STARLINK-35894", "group": "last-30-days", "lat": 13.253707287809405, "lon": -35.03651737373918, "alt_km": 407.3699460672178, "timestamp": "2025-12-06T20:37:54.812882+00:00", "meta": {"OBJECT_NAME": "STARLINK-35894", "OBJECT_ID": "2025-263R", "EPOCH": "2025-12-06T14:00:01.999872", "MEAN_MOTION": 15.54009963, "ECCENTRICITY": 0.00018219, "INCLINATION": 42.9993, "RA_OF_ASC_NODE": 161.2281, "ARG_OF_PERICENTER": 264.4535, "MEAN_ANOMALY": 148.9279, "EPHEMERIS_TYPE": 0, "CLASSIFICATION_TYPE": "U", "NORAD_CAT_ID": 66500, "ELEMENT_SET_NO": 999, "REV_AT_EPOCH": 464, "BSTAR": -0.04033786, "MEAN_MOTION_DOT": -0.02346308, "MEAN_MOTION_DDOT": 0}, "tle": {"line1": "1 66500U 25263R   25340.58335648 -.02346308  00000+0 -40338-1 0  9997", "line2": "2 66500  42.9993 161.2281 0001821 264.4535 148.9279 15.54009963  4643"}}, "geometry": {"type": "Point", "coordinates": [-35.03651737373918, 13.253707287809405]}}, {"type": "Feature", "properties": {"norad_id": 66501, "name": "STARLINK-35897", "group": "last-30-days", "lat": -10.24393672696494, "lon": -9.298195209262214, "alt_km": 397.86779509294956, "timestamp": "2025-12-06T20:37:54.812895+00:00", "meta": {"OBJECT_NAME": "STARLINK-35897", "OBJECT_ID": "2025-263S", "EPOCH": "2025-12-06T14:00:01.999872", "MEAN_MOTION": 15.58012348, "ECCENTRICITY": 0.0001551, "INCLINATION": 42.9997, "RA_OF_ASC_NODE": 161.1521, "ARG_OF_PERICENTER": 275.5969, "MEAN_ANOMALY": 168.4755, "EPHEMERIS_TYPE": 0, "CLASSIFICATION_TYPE": "U", "NORAD_CAT_ID": 66501, "ELEMENT_SET_NO": 999, "REV_AT_EPOCH": 464, "BSTAR": -0.030826796, "MEAN_MOTION_DOT": -0.02112705, "MEAN_MOTION_DDOT": 0}, "tle": {"line1": "1 66501U 25263S   25340.58335648 -.02112705  00000+0 -30827-1 0  9992", "line2": "2 66501  42.9997 161.1521 0001551 275.5969 168.4755 15.58012348  4649"}}, "geometry": {"type": "Point", "coordinates": [-9.298195209262214, -10.24393672696494]}}]}